YAOGAN-43 01D           
1 60461U 24148D   26068.43560480  .00010676  00000+0  37766-3 0  9999
2 60461  35.0010  61.7102 0002556 326.2473  33.8080 15.28369377 87008
STARLINK-34562          
1 64725U 25144B   26068.52203556  .00016639  00000+0  57273-3 0  9991
2 64725  53.1584 182.0046 0001367  53.6556 306.4571 15.30196296 39662
