[{"OBJECT_NAME":"YAOGAN-43 01D","OBJECT_ID":"2024-148D","EPOCH":"2026-03-09T10:27:16.254720","MEAN_MOTION":15.28369377,"ECCENTRICITY":0.00025569,"INCLINATION":35.001,"RA_OF_ASC_NODE":61.7102,"ARG_OF_PERICENTER":326.2473,"MEAN_ANOMALY":33.808,"EPHEMERIS_TYPE":0,"CLASSIFICATION_TYPE":"U","NORAD_CAT_ID":60461,"ELEMENT_SET_NO":999,"REV_AT_EPOCH":8700,"BSTAR":0.00037765912,"MEAN_MOTION_DOT":0.00010676,"MEAN_MOTION_DDOT":0},{"OBJECT_NAME":"STARLINK-34562","OBJECT_ID":"2025-144B","EPOCH":"2026-03-09T12:31:43.872384","MEAN_MOTION":15.30196296,"ECCENTRICITY":0.00013671,"INCLINATION":53.1584,"RA_OF_ASC_NODE":182.0046,"ARG_OF_PERICENTER":53.6556,"MEAN_ANOMALY":306.4571,"EPHEMERIS_TYPE":0,"CLASSIFICATION_TYPE":"U","NORAD_CAT_ID":64725,"ELEMENT_SET_NO":999,"REV_AT_EPOCH":3966,"BSTAR":0.00057272577,"MEAN_MOTION_DOT":0.00016639,"MEAN_MOTION_DDOT":0}]
